{"type": "FeatureCollection", "features": [ {"type": "Feature", "properties": {"norad_id": 43565, "name": "GSAT0222 (GALILEO 26)", "group": "gnss", "lat": -51.68381820874744, "lon": -67.90412665271775, "alt_km": 23211.484630724764, "timestamp": "2025-12-16T17:51:11.174572+00:00", "meta": {"OBJECT_NAME": "GSAT0222 (GALILEO 26)", "OBJECT_ID": "2018-060B", "EPOCH": "2025-12-14T12:14:12.279840", "MEAN_MOTION": 1.70475606, "ECCENTRICITY": 0.00061133, "INCLINATION": 57.2308, "RA_OF_ASC_NODE": 346.7727, "ARG_OF_PERICENTER": 264.5011, "MEAN_ANOMALY": 95.4481, "EPHEMERIS_TYPE": 0, "CLASSIFICATION_TYPE": "U", "NORAD_CAT_ID": 43565, "ELEMENT_SET_NO": 999, "REV_AT_EPOCH": 4606, "BSTAR": 0, "MEAN_MOTION_DOT": -8.4e-07, "MEAN_MOTION_DDOT": 0}, "tle": {"line1": "1 43565U 18060B   25348.50986435 -.00000084  00000+0  00000+0 0  9991", "line2": "2 43565  57.2308 346.7727 0006113 264.5011  95.4481  1.70475606 46069"}}, "geometry": {"type": "Point", "coordinates": [-67.90412665271775, -51.68381820874744]}}, {"type": "Feature", "properties": {"norad_id": 43566, "name": "GSAT0219 (GALILEO 23)", "group": "gnss", "lat": 20.583317788851463, "lon": 152.71015091053357, "alt_km": 23231.059831417613, "timestamp": "2025-12-16T17:51:11.174583+00:00", "meta": {"OBJECT_NAME": "GSAT0219 (GALILEO 23)", "OBJECT_ID": "2018-060C", "EPOCH": "2025-12-15T07:37:19.968672", "MEAN_MOTION": 1.70475843, "ECCENTRICITY": 0.00058028, "INCLINATION": 57.2299, "RA_OF_ASC_NODE": 346.7524, "ARG_OF_PERICENTER": 287.2697, "MEAN_ANOMALY": 72.6854, "EPHEMERIS_TYPE": 0, "CLASSIFICATION_TYPE": "U", "NORAD_CAT_ID": 43566, "ELEMENT_SET_NO": 999, "REV_AT_EPOCH": 4605, "BSTAR": 0, "MEAN_MOTION_DOT": -8.3e-07, "MEAN_MOTION_DDOT": 0}, "tle": {"line1": "1 43566U 18060C   25349.31759223 -.00000083  00000+0  00000+0 0  9994", "line2": "2 43566  57.2299 346.7524 0005802 287.2697  72.6854  1.70475843 46053"}}, "geometry": {"type": "Point", "coordinates": [152.71015091053357, 20.583317788851463]}}, {"type": "Feature", "properties": {"norad_id": 43567, "name": "GSAT0220 (GALILEO 24)", "group": "gnss", "lat": 16.512431226895774, "lon": -2.2780061827234666, "alt_km": 23221.431844671373, "timestamp": "2025-12-16T17:51:11.174594+00:00", "meta": {"OBJECT_NAME": "GSAT0220 (GALILEO 24)", "OBJECT_ID": "2018-060D", "EPOCH": "2025-12-13T18:41:25.404000", "MEAN_MOTION": 1.70475925, "ECCENTRICITY": 0.00061008, "INCLINATION": 57.2299, "RA_OF_ASC_NODE": 346.7937, "ARG_OF_PERICENTER": 285.541, "MEAN_ANOMALY": 74.4106, "EPHEMERIS_TYPE": 0, "CLASSIFICATION_TYPE": "U", "NORAD_CAT_ID": 43567, "ELEMENT_SET_NO": 999, "REV_AT_EPOCH": 4601, "BSTAR": 0, "MEAN_MOTION_DOT": -8.5e-07, "MEAN_MOTION_DDOT": 0}, "tle": {"line1": "1 43567U 18060D   25347.77876625 -.00000085  00000+0  00000+0 0  9991", "line2": "2 43567  57.2299 346.7937 0006100 285.5410  74.4106  1.70475925 46015"}}, "geometry": {"type": "Point", "coordinates": [-2.2780061827234666, 16.512431226895774]}}, {"type": "Feature", "properties": {"norad_id": 43581, "name": "BEIDOU-3 M5 (C23)", "group": "gnss", "lat": 34.73987289099202, "lon": -21.664718151356027, "alt_km": 21528.565569867158, "timestamp": "2025-12-16T17:51:11.174605+00:00", "meta": {"OBJECT_NAME": "BEIDOU-3 M5 (C23)", "OBJECT_ID": "2018-062A", "EPOCH": "2025-12-12T05:55:01.607232", "MEAN_MOTION": 1.86228672, "ECCENTRICITY": 0.00021016, "INCLINATION": 54.0891, "RA_OF_ASC_NODE": 188.6597, "ARG_OF_PERICENTER": 354.1416, "MEAN_ANOMALY": 5.9159, "EPHEMERIS_TYPE": 0, "CLASSIFICATION_TYPE": "U", "NORAD_CAT_ID": 43581, "ELEMENT_SET_NO": 999, "REV_AT_EPOCH": 5015, "BSTAR": 0, "MEAN_MOTION_DOT": 7.9e-07, "MEAN_MOTION_DDOT": 0}, "tle": {"line1": "1 43581U 18062A   25346.24654638  .00000079  00000+0  00000+0 0  9990", "line2": "2 43581  54.0891 188.6597 0002101 354.1416   5.9159  1.86228672 50154"}}, "geometry": {"type": "Point", "coordinates": [-21.664718151356027, 34.73987289099202]}}, {"type": "Feature", "properties": {"norad_id": 43582, "name": "BEIDOU-3 M6 (C24)", "group": "gnss", "lat": -36.40161585954984, "lon": 40.811261999360475, "alt_km": 21554.432340387302, "timestamp": "2025-12-16T17:51:11.174617+00:00", "meta": {"OBJECT_NAME": "BEIDOU-3 M6 (C24)", "OBJECT_ID": "2018-062B", "EPOCH": "2025-12-15T20:50:21.636672", "MEAN_MOTION": 1.86229812, "ECCENTRICITY": 0.00078211, "INCLINATION": 54.0887, "RA_OF_ASC_NODE": 188.5256, "ARG_OF_PERICENTER": 46.8936, "MEAN_ANOMALY": 313.2408, "EPHEMERIS_TYPE": 0, "CLASSIFICATION_TYPE": "U", "NORAD_CAT_ID": 43582, "ELEMENT_SET_NO": 999, "REV_AT_EPOCH": 5022, "BSTAR": 0, "MEAN_MOTION_DOT": 1.14e-06, "MEAN_MOTION_DDOT": 0}, "tle": {"line1": "1 43582U 18062B   25349.86830598  .00000114  00000+0  00000+0 0  9993", "line2": "2 43582  54.0887 188.5256 0007821  46.8936 313.2408  1.86229812 50224"}}, "geometry": {"type": "Point", "coordinates": [40.811261999360475, -36.40161585954984]}}, {"type": "Feature", "properties": {"norad_id": 43602, "name": "BEIDOU-3 M12 (C26)", "group": "gnss", "lat": -54.13451937047361, "lon": 95.00850622550962, "alt_km": 21551.407091457586, "timestamp": "2025-12-16T17:51:11.174632+00:00", "meta": {"OBJECT_NAME": "BEIDOU-3 M12 (C26)", "OBJECT_ID": "2018-067A", "EPOCH": "2025-12-15T19:20:53.056032", "MEAN_MOTION": 1.86227726, "ECCENTRICITY": 0.00091938, "INCLINATION": 54.1832, "RA_OF_ASC_NODE": 187.259, "ARG_OF_PERICENTER": 40.8045, "MEAN_ANOMALY": 319.3313, "EPHEMERIS_TYPE": 0, "CLASSIFICATION_TYPE": "U", "NORAD_CAT_ID": 43602, "ELEMENT_SET_NO": 999, "REV_AT_EPOCH": 4970, "BSTAR": 0, "MEAN_MOTION_DOT": 1.15e-06, "MEAN_MOTION_DDOT": 0}, "tle": {"line1": "1 43602U 18067A   25349.80616963  .00000115  00000+0  00000+0 0  9994", "line2": "2 43602  54.1832 187.2590 0009193  40.8045 319.3313  1.86227726 49709"}}, "geometry": {"type": "Point", "coordinates": [95.00850622550962, -54.13451937047361]}}, {"type": "Feature", "properties": {"norad_id": 43603, "name": "BEIDOU-3 M11 (C25)", "group": "gnss", "lat": 1.1180394406693146, "lon": 6.3894782196655235, "alt_km": 21540.790005588533, "timestamp": "2025-12-16T17:51:11.174643+00:00", "meta": {"OBJECT_NAME": "BEIDOU-3 M11 (C25)", "OBJECT_ID": "2018-067B", "EPOCH": "2025-12-15T09:41:21.883200", "MEAN_MOTION": 1.86227246, "ECCENTRICITY": 0.00055714, "INCLINATION": 54.1803, "RA_OF_ASC_NODE": 187.2367, "ARG_OF_PERICENTER": 36.5253, "MEAN_ANOMALY": 323.5792, "EPHEMERIS_TYPE": 0, "CLASSIFICATION_TYPE": "U", "NORAD_CAT_ID": 43603, "ELEMENT_SET_NO": 999, "REV_AT_EPOCH": 4972, "BSTAR": 0, "MEAN_MOTION_DOT": 1.14e-06, "MEAN_MOTION_DDOT": 0}, "tle": {"line1": "1 43603U 18067B   25349.40372550  .00000114  00000+0  00000+0 0  9991", "line2": "2 43603  54.1803 187.2367 0005571  36.5253 323.5792  1.86227246 49726"}}, "geometry": {"type": "Point", "coordinates": [6.3894782196655235, 1.1180394406693146]}}, {"type": "Feature", "properties": {"norad_id": 43622, "name": "BEIDOU-3 M13 (C32)", "group": "gnss", "lat": -22.725477969886878, "lon": -95.19898283687873, "alt_km": 21531.564011997198, "timestamp": "2025-12-16T17:51:11.174667+00:00", "meta": {"OBJECT_NAME": "BEIDOU-3 M13 (C32)", "OBJECT_ID": "2018-072A", "EPOCH": "2025-12-12T16:12:36.163584", "MEAN_MOTION": 1.8623072, "ECCENTRICITY": 0.0005872, "INCLINATION": 56.4592, "RA_OF_ASC_NODE": 68.8222, "ARG_OF_PERICENTER": 298.9421, "MEAN_ANOMALY": 61.0187, "EPHEMERIS_TYPE": 0, "CLASSIFICATION_TYPE": "U", "NORAD_CAT_ID": 43622, "ELEMENT_SET_NO": 999, "REV_AT_EPOCH": 4918, "BSTAR": 0, "MEAN_MOTION_DOT": -7.4e-07, "MEAN_MOTION_DDOT": 0}, "tle": {"line1": "1 43622U 18072A   25346.67541856 -.00000074  00000+0  00000+0 0  9997", "line2": "2 43622  56.4592  68.8222 0005872 298.9421  61.0187  1.86230720 49189"}}, "geometry": {"type": "Point", "coordinates": [-95.19898283687873, -22.725477969886878]}}, {"type": "Feature", "properties": {"norad_id": 43623, "name": "BEIDOU-3 M14 (C33)", "group": "gnss", "lat": -47.487670955211904, "lon": 22.44375998916754, "alt_km": 21526.069713824905, "timestamp": "2025-12-16T17:51:11.174679+00:00", "meta": {"OBJECT_NAME": "BEIDOU-3 M14 (C33)", "OBJECT_ID": "2018-072B", "EPOCH": "2025-12-14T16:31:43.622976", "MEAN_MOTION": 1.86230968, "ECCENTRICITY": 0.00033007, "INCLINATION": 56.4633, "RA_OF_ASC_NODE": 68.7492, "ARG_OF_PERICENTER": 334.4118, "MEAN_ANOMALY": 25.5906, "EPHEMERIS_TYPE": 0, "CLASSIFICATION_TYPE": "U", "NORAD_CAT_ID": 43623, "ELEMENT_SET_NO": 999, "REV_AT_EPOCH": 4921, "BSTAR": 0, "MEAN_MOTION_DOT": -8.3e-07, "MEAN_MOTION_DDOT": 0}, "tle": {"line1": "1 43623U 18072B   25348.68869934 -.00000083  00000+0  00000+0 0  9991", "line2": "2 43623  56.4633  68.7492 0003300 334.4118  25.5906  1.86230968 49219"}}, "geometry": {"type": "Point", "coordinates": [22.44375998916754, -47.487670955211904]}}, {"type": "Feature", "properties": {"norad_id": 43647, "name": "BEIDOU-3 M16 (C35)", "group": "gnss", "lat": -9.875720182958506, "lon": 133.5549371409443, "alt_km": 21549.347280565205, "timestamp": "2025-12-16T17:51:11.174691+00:00", "meta": {"OBJECT_NAME": "BEIDOU-3 M16 (C35)", "OBJECT_ID": "2018-078A", "EPOCH": "2025-12-13T05:39:20.780352", "MEAN_MOTION": 1.8623234, "ECCENTRICITY": 0.00072054, "INCLINATION": 54.2615, "RA_OF_ASC_NODE": 306.5038, "ARG_OF_PERICENTER": 19.3609, "MEAN_ANOMALY": 340.6562, "EPHEMERIS_TYPE": 0, "CLASSIFICATION_TYPE": "U", "NORAD_CAT_ID": 43647, "ELEMENT_SET_NO": 999, "REV_AT_EPOCH": 4869, "BSTAR": 0, "MEAN_MOTION_DOT": -9.7e-07, "MEAN_MOTION_DDOT": 0}, "tle": {"line1": "1 43647U 18078A   25347.23565718 -.00000097  00000+0  00000+0 0  9991", "line2": "2 43647  54.2615 306.5038 0007205  19.3609 340.6562  1.86232340 48698"}}, "geometry": {"type": "Point", "coordinates": [133.5549371409443, -9.875720182958506]}}]}